IRIDIUM 154             
1 43574U 18061F   26182.88299053  .00000091  00000+0  25425-4 0  9993
2 43574  86.3950  50.6612 0002242  89.0196 271.1257 14.34218345415515
IRIDIUM 163             
1 43575U 18061G   26182.37558416  .00000054  00000+0  12046-4 0  9993
2 43575  86.3946  50.7883 0002182  84.3491 275.7953 14.34217869415413
IRIDIUM 156             
1 43576U 18061H   26182.62928716  .00000171  00000+0  54079-4 0  9998
2 43576  86.3944  50.6893 0001965  87.1888 272.9533 14.34220092415449
IRIDIUM 164             
1 43577U 18061J   26182.88933425  .00000002  00000+0 -64662-5 0  9994
2 43577  86.3946  50.6210 0002132  89.7721 270.3720 14.34217499415522
IRIDIUM 159             
1 43578U 18061K   26182.92739004  .00000039  00000+0  67136-5 0  9995
2 43578  86.3946  50.5418 0002222  84.7325 275.4125 14.34217743415490
IRIDIUM 180             
1 43922U 19002A   26182.92688585  .00000006  00000+0 -50619-5 0  9994
2 43922  86.3974 347.4350 0002128  89.7624 270.3815 14.34217536391100
IRIDIUM 176             
1 43923U 19002B   26182.90800399  .00000822  00000+0  12659-3 0  9997
2 43923  86.6099 347.3840 0002382  88.3014 271.8476 14.72234060401413
IRIDIUM 168             
1 43924U 19002C   26182.92053851  .00000180  00000+0  57372-4 0  9992
2 43924  86.3981 347.5150 0002222  89.9007 270.2443 14.34218446391085
IRIDIUM 173             
1 43925U 19002D   26182.90785826 -.00000009  00000+0 -10329-4 0  9998
2 43925  86.3975 347.4090 0002039  89.3616 270.7814 14.34217401391062
IRIDIUM 169             
1 43926U 19002E   26182.92850678  .00000300  00000+0  91614-4 0  9997
2 43926  86.4218  19.0288 0001636  88.6575 271.4811 14.38610483392341
IRIDIUM 172             
1 43927U 19002F   26182.90151575  .00000057  00000+0  13346-4 0  9991
2 43927  86.3978 347.4193 0002220  89.4420 270.7030 14.34217455391077
IRIDIUM 175             
1 43928U 19002G   26182.69330525  .00000336  00000+0  93353-4 0  9998
2 43928  86.4519 284.4574 0004264 142.8856 217.2641 14.43620762401075
IRIDIUM 171             
1 43929U 19002H   26182.95225636  .00000015  00000+0 -16659-5 0  9994
2 43929  86.3986 347.7057 0002148  94.2137 265.9304 14.34217630391073
IRIDIUM 170             
1 43930U 19002J   26182.91417914  .00000810  00000+0  12466-3 0  9996
2 43930  86.6097 347.3837 0002431  84.7965 275.3530 14.72234512401428
IRIDIUM 167             
1 43931U 19002K   26182.94591294  .00000052  00000+0  11648-4 0  9994
2 43931  86.3979 347.4233 0002056  98.2808 261.8621 14.34217985391078
IRIDIUM 181             
1 56726U 23068S   26182.87360996  .00000324  00000+0  90211-4 0  9997
2 56726  86.4484  50.6502 0002436  86.2572 273.8908 14.43314014164558
IRIDIUM 177             
1 56727U 23068T   26182.85765451  .00001167  00000+0  15078-3 0  9994
2 56727  86.1975 321.8241 0002323  89.5164 270.6323 14.80045462168539
IRIDIUM 174             
1 56728U 23068U   26182.90181157  .00000865  00000+0  13323-3 0  9991
2 56728  86.6107 347.5378 0002263  80.3362 279.8111 14.72242562168188
IRIDIUM 178             
1 56729U 23068V   26182.91422911  .00001060  00000+0  13667-3 0  9998
2 56729  86.6532  19.2043 0002490  85.5320 274.6186 14.80046500168544
IRIDIUM 179             
1 56730U 23068W   26182.84132435  .00001029  00000+0  13254-3 0  9998
2 56730  86.6765  28.2581 0002436  87.7534 272.3966 14.80063551168537
