OBJECT_NAME,OBJECT_ID,EPOCH,MEAN_MOTION,ECCENTRICITY,INCLINATION,RA_OF_ASC_NODE,ARG_OF_PERICENTER,MEAN_ANOMALY,EPHEMERIS_TYPE,CLASSIFICATION_TYPE,NORAD_CAT_ID,ELEMENT_SET_NO,REV_AT_EPOCH,BSTAR,MEAN_MOTION_DOT,MEAN_MOTION_DDOT
IRIDIUM 154,2018-061F,2026-07-01T21:11:30.381792,14.34218345,.00022426,86.3950,50.6612,89.0196,271.1257,0,U,43574,999,41551,.25425031E-4,.91E-6,0
IRIDIUM 163,2018-061G,2026-07-01T09:00:50.471424,14.34217869,.00021821,86.3946,50.7883,84.3491,275.7953,0,U,43575,999,41541,.12045889E-4,.54E-6,0
IRIDIUM 156,2018-061H,2026-07-01T15:06:10.410624,14.34220092,.00019653,86.3944,50.6893,87.1888,272.9533,0,U,43576,999,41544,.54078561E-4,.171E-5,0
IRIDIUM 164,2018-061J,2026-07-01T21:20:38.479200,14.34217499,.00021326,86.3946,50.6210,89.7721,270.3720,0,U,43577,999,41552,-.6466229E-5,.2E-7,0
IRIDIUM 159,2018-061K,2026-07-01T22:15:26.499456,14.34217743,.00022226,86.3946,50.5418,84.7325,275.4125,0,U,43578,999,41549,.6713556E-5,.39E-6,0
IRIDIUM 180,2019-002A,2026-07-01T22:14:42.937440,14.34217536,.00021284,86.3974,347.4350,89.7624,270.3815,0,U,43922,999,39110,-.5061949E-5,.6E-7,0
IRIDIUM 176,2019-002B,2026-07-01T21:47:31.544736,14.72234060,.00023821,86.6099,347.3840,88.3014,271.8476,0,U,43923,999,40141,.12658695E-3,.822E-5,0
IRIDIUM 168,2019-002C,2026-07-01T22:05:34.527264,14.34218446,.00022224,86.3981,347.5150,89.9007,270.2443,0,U,43924,999,39108,.57371942E-4,.18E-5,0
IRIDIUM 173,2019-002D,2026-07-01T21:47:18.953664,14.34217401,.00020398,86.3975,347.4090,89.3616,270.7814,0,U,43925,999,39106,-.10328933E-4,-.9E-7,0
IRIDIUM 169,2019-002E,2026-07-01T22:17:02.985792,14.38610483,.0001636,86.4218,19.0288,88.6575,271.4811,0,U,43926,999,39234,.91613732E-4,.3E-5,0
IRIDIUM 172,2019-002F,2026-07-01T21:38:10.960800,14.34217455,.00022209,86.3978,347.4193,89.4420,270.7030,0,U,43927,999,39107,.13345687E-4,.57E-6,0
IRIDIUM 175,2019-002G,2026-07-01T16:38:21.573600,14.43620762,.00042646,86.4519,284.4574,142.8856,217.2641,0,U,43928,999,40107,.93352606E-4,.336E-5,0
IRIDIUM 171,2019-002H,2026-07-01T22:51:14.949504,14.34217630,.00021485,86.3986,347.7057,94.2137,265.9304,0,U,43929,999,39107,-.1665929E-5,.15E-6,0
IRIDIUM 170,2019-002J,2026-07-01T21:56:25.077696,14.72234512,.0002431,86.6097,347.3837,84.7965,275.3530,0,U,43930,999,40142,.12466431E-3,.81E-5,0
IRIDIUM 167,2019-002K,2026-07-01T22:42:06.878016,14.34217985,.00020561,86.3979,347.4233,98.2808,261.8621,0,U,43931,999,39107,.1164839E-4,.52E-6,0
IRIDIUM 181,2023-068S,2026-07-01T20:57:59.900544,14.43314014,.00024368,86.4484,50.6502,86.2572,273.8908,0,U,56726,999,16455,.90211415E-4,.324E-5,0
IRIDIUM 177,2023-068T,2026-07-01T20:35:01.349664,14.80045462,.00023237,86.1975,321.8241,89.5164,270.6323,0,U,56727,999,16853,.15077804E-3,.1167E-4,0
IRIDIUM 174,2023-068U,2026-07-01T21:38:36.519648,14.72242562,.00022639,86.6107,347.5378,80.3362,279.8111,0,U,56728,999,16818,.13323174E-3,.865E-5,0
IRIDIUM 178,2023-068V,2026-07-01T21:56:29.395104,14.80046500,.00024901,86.6532,19.2043,85.5320,274.6186,0,U,56729,999,16854,.13667495E-3,.106E-4,0
IRIDIUM 179,2023-068W,2026-07-01T20:11:30.423840,14.80063551,.00024361,86.6765,28.2581,87.7534,272.3966,0,U,56730,999,16853,.1325366E-3,.1029E-4,0
